*******************************************************************************
JPL/HORIZONS                635 Vundtia (A907 LA)          2020-Jun-22 09:17:30
Rec #:     635 (+COV) Soln.date: 2020-Feb-22_15:32:43   # obs: 3195 (1906-2020)
 
IAU76/J2000 helio. ecliptic osc. elements (au, days, deg., period=Julian yrs):
 
  EPOCH=  2455782.5 ! 2011-Aug-09.00 (TDB)         Residual RMS= .31529
   EC= .07693615679432848  QR= 2.901180567482667   TP= 2455103.0118599692
   OM= 183.0925169929285   W=  222.976451169915    IN= 11.02895959047241
   A= 3.142990150504946    MA= 120.1908550208312   ADIST= 3.384799733527225
   PER= 5.57215            N= .1768844             ANGMOM= .030406316
   DAN= 3.31075            DDN= 2.95789            L= 45.5366348
   B= -7.4934171           MOID= 1.91973996        TP= 2009-Sep-28.5118599692
 
Asteroid physical parameters (km, seconds, rotational period in hours):
   GM= n.a.                RAD= 47.2075            ROTPER= 11.79
   H= 9.                   G= .150                 B-V= .675
                           ALBEDO= .034            STYP= C
 
ASTEROID comments: 
1: soln ref.= JPL#86, OCC=0
2: source=ORB
*******************************************************************************
 
 
*******************************************************************************
Ephemeris / WWW_USER Mon Jun 22 09:17:30 2020 Pasadena, USA      / Horizons
*******************************************************************************
Target body name: 635 Vundtia (A907 LA)           {source: JPL#86}
Center body name: Solar System Barycenter (0)     {source: DE431}
Center-site name: BODY CENTER
*******************************************************************************
Start time      : A.D. 1969-Jun-28 00:00:00.0000 TDB
Stop  time      : A.D. 2071-May-04 00:00:00.0000 TDB
Step-size       : 7200 minutes
*******************************************************************************
Center geodetic : 0.00000000,0.00000000,0.0000000 {E-lon(deg),Lat(deg),Alt(km)}
Center cylindric: 0.00000000,0.00000000,0.0000000 {E-lon(deg),Dxy(km),Dz(km)}
Center radii    : (undefined)                                                  
Small perturbers: Yes                             {source: SB431-N16}
Output units    : AU-D
Output type     : GEOMETRIC cartesian states
Output format   : 2 (position and velocity)
Reference frame : Ecliptic of J2000.0
*******************************************************************************
Initial IAU76/J2000 heliocentric ecliptic osculating elements (au, days, deg.):
  EPOCH=  2455782.5 ! 2011-Aug-09.00 (TDB)         Residual RMS= .31529        
   EC= .07693615679432848  QR= 2.901180567482667   TP= 2455103.0118599692      
   OM= 183.0925169929285   W=  222.976451169915    IN= 11.02895959047241       
  Equivalent ICRF heliocentric equatorial cartesian coordinates (au, au/d):
   X=-3.256132716307037E+00  Y= 3.722615287041646E-01  Z= 4.761092498403940E-02
  VX=-1.648442200091807E-03 VY=-8.930473402732796E-03 VZ=-1.985162664713857E-03
Asteroid physical parameters (km, seconds, rotational period in hours):        
   GM= n.a.                RAD= 47.2075            ROTPER= 11.79               
   H= 9.                   G= .150                 B-V= .675                   
                           ALBEDO= .034            STYP= C                     
*******************************************************************************
            JDTDB,            Calendar Date (TDB),        delta-T,                      X,                      Y,                      Z,                     VX,                     VY,                     VZ,
******************************************************************************************************************************************************************************************************************
$$SOE
2463780.500000000, A.D. 2033-Jul-02 00:00:00.0000,      69.184103, -2.739503790463701E+00,  1.528273709793484E+00, -3.227442392868711E-01, -5.490463122474800E-03, -7.842057612974697E-03,  1.472899891147627E-03,
2463785.500000000, A.D. 2033-Jul-07 00:00:00.0000,      69.183963, -2.766631719369237E+00,  1.488884148462315E+00, -3.153418575005174E-01, -5.360578088989756E-03, -7.913411169454666E-03,  1.487984848372058E-03,
2463790.500000000, A.D. 2033-Jul-12 00:00:00.0000,      69.183821, -2.793108298632213E+00,  1.449143155976869E+00, -3.078650709143669E-01, -5.229929410681035E-03, -7.982630018717241E-03,  1.502661742781437E-03,
2463795.500000000, A.D. 2033-Jul-17 00:00:00.0000,      69.183681, -2.818929801905528E+00,  1.409061406228384E+00, -3.003159207696913E-01, -5.098553777857158E-03, -8.049714115021747E-03,  1.516930222807046E-03,
2463800.500000000, A.D. 2033-Jul-22 00:00:00.0000,      69.183544, -2.844092685381022E+00,  1.368649571905855E+00, -2.926964497785931E-01, -4.966487514779766E-03, -8.114663982240351E-03,  1.530790051159175E-03,
2463805.500000000, A.D. 2033-Jul-27 00:00:00.0000,      69.183412, -2.868593585944593E+00,  1.327918321689318E+00, -2.850087015604760E-01, -4.833766573891891E-03, -8.177480697348170E-03,  1.544241101686405E-03,
2463810.500000000, A.D. 2033-Aug-01 00:00:00.0000,      69.183284, -2.892429319303754E+00,  1.286878317525214E+00, -2.772547200941315E-01, -4.700426530561720E-03, -8.238165874107891E-03,  1.557283356271055E-03,
2463815.500000000, A.D. 2033-Aug-06 00:00:00.0000,      69.183160, -2.915596878090153E+00,  1.245540211982737E+00, -2.694365491852470E-01, -4.566502578327386E-03, -8.296721646998920E-03,  1.569916901764365E-03,
2463820.500000000, A.D. 2033-Aug-11 00:00:00.0000,      69.183040, -2.938093429939722E+00,  1.203914645689846E+00, -2.615562319491742E-01, -4.432029524726301E-03, -8.353150655428253E-03,  1.582141926940943E-03,
2463825.500000000, A.D. 2033-Aug-16 00:00:00.0000,      69.182928, -2.959916315553800E+00,  1.162012244847656E+00, -2.536158103089761E-01, -4.297041787885171E-03, -8.407456028126346E-03,  1.593958719425468E-03,
2463830.500000000, A.D. 2033-Aug-21 00:00:00.0000,      69.182824, -2.981063046745062E+00,  1.119843618822866E+00, -2.456173245089166E-01, -4.161573393785218E-03, -8.459641367520771E-03,  1.605367662602471E-03,
2463835.500000000, A.D. 2033-Aug-26 00:00:00.0000,      69.182730, -3.001531304470490E+00,  1.077419357818330E+00, -2.375628126432133E-01, -4.025657973748459E-03, -8.509710734147267E-03,  1.616369232619164E-03,
2463840.500000000, A.D. 2033-Aug-31 00:00:00.0000,      69.182645, -3.021318936851849E+00,  1.034750030620681E+00, -2.294543101994045E-01, -3.889328761983799E-03, -8.557668631476426E-03,  1.626963995532276E-03,
2463845.500000000, A.D. 2033-Sep-05 00:00:00.0000,      69.182568, -3.040423957184833E+00,  9.918461824224670E-01, -2.212938496158048E-01, -3.752618593570872E-03, -8.603519991263351E-03,  1.637152604506588E-03,
2463850.500000000, A.D. 2033-Sep-10 00:00:00.0000,      69.182500, -3.058844541939802E+00,  9.487183327166484E-01, -2.130834598530079E-01, -3.615559903130667E-03, -8.647270159215389E-03,  1.646935796994497E-03,
2463855.500000000, A.D. 2033-Sep-15 00:00:00.0000,      69.182444, -3.076579028757469E+00,  9.053769732623245E-01, -2.048251659795155E-01, -3.478184724105964E-03, -8.688924880818436E-03,  1.656314391911083E-03,
2463860.500000000, A.D. 2033-Sep-20 00:00:00.0000,      69.182400, -3.093625914442197E+00,  8.618325661209723E-01, -1.965209887714258E-01, -3.340524688504503E-03, -8.728490287313106E-03,  1.665289286841116E-03,
2463865.500000000, A.D. 2033-Sep-25 00:00:00.0000,      69.182368, -3.109983852954991E+00,  8.180955417623363E-01, -1.881729443259632E-01, -3.202611027026397E-03, -8.765972881864705E-03,  1.673861455297022E-03,
2463870.500000000, A.D. 2033-Sep-30 00:00:00.0000,      69.182349, -3.125651653408009E+00,  7.741762972389331E-01, -1.797830436885774E-01, -3.064474569541621E-03, -8.801379525947619E-03,  1.682031944033510E-03,
2463875.500000000, A.D. 2033-Oct-05 00:00:00.0000,      69.182340, -3.140628278062287E+00,  7.300851944281054E-01, -1.713532924933216E-01, -2.926145745886388E-03, -8.834717425938747E-03,  1.689801870422086E-03,
2463880.500000000, A.D. 2033-Oct-10 00:00:00.0000,      69.182341, -3.154912840330116E+00,  6.858325583406112E-01, -1.628856906161950E-01, -2.787654586920112E-03, -8.865994119912084E-03,  1.697172419892938E-03,
2463885.500000000, A.D. 2033-Oct-15 00:00:00.0000,      69.182356, -3.168504602783206E+00,  6.414286754947246E-01, -1.543822318410853E-01, -2.649030725771167E-03, -8.895217464638429E-03,  1.704144843453716E-03,
2463890.500000000, A.D. 2033-Oct-20 00:00:00.0000,      69.182384, -3.181402975167369E+00,  5.968837923547466E-01, -1.458449035379034E-01, -2.510303399180294E-03, -8.922395622834967E-03,  1.710720455296187E-03,
2463895.500000000, A.D. 2033-Oct-25 00:00:00.0000,      69.182426, -3.193607512424041E+00,  5.522081138325149E-01, -1.372756863524572E-01, -2.371501448888868E-03, -8.947537050728352E-03,  1.716900630493582E-03,
2463900.500000000, A.D. 2033-Oct-30 00:00:00.0000,      69.182478, -3.205117912718799E+00,  5.074118018501095E-01, -1.286765539076200E-01, -2.232653323051646E-03, -8.970650486030730E-03,  1.722686802783155E-03,
2463905.500000000, A.D. 2033-Nov-04 00:00:00.0000,      69.182541, -3.215934015477124E+00,  4.625049739614382E-01, -1.200494725154140E-01, -2.093787077742647E-03, -8.991744936427104E-03,  1.728080462412471E-03,
2463910.500000000, A.D. 2033-Nov-09 00:00:00.0000,      69.182613, -3.226055799428333E+00,  4.174977020299647E-01, -1.113964008997861E-01, -1.954930378767295E-03, -9.010829668631813E-03,  1.733083154008272E-03,
2463915.500000000, A.D. 2033-Nov-14 00:00:00.0000,      69.182697, -3.235483380660015E+00,  3.724000109599156E-01, -1.027192899300780E-01, -1.816110504097638E-03, -9.027914197899835E-03,  1.737696474424741E-03,
